BEIDOU-2 IGSO-6         
1 41434U 16021A   23355.12132536 -.00000174  00000+0  00000+0 0  9998
2 41434  58.9076  47.1658 0049788 223.5187 317.3028  1.00261435 28352
E-ST@R-II               
1 41459U 16025D   23355.46849495  .00077372  00000+0  13233-2 0  9993
2 41459  98.1571 217.7642 0073429 158.3421 202.0960 15.47955595421678
AIST-2D (RS-48)         
1 41465U 16026B   23355.44417914  .00077936  00000+0  54403-3 0  9997
2 41465  96.9636 224.8144 0002513 230.5594 129.5449 15.74075879429243
IRNSS-1G                
1 41469U 16027A   23354.90423479 -.00000324  00000+0  00000+0 0  9993
2 41469   3.0485 126.3740 0002768 261.6505 156.1676  1.00277440 28060
JCSAT-2B                
1 41471U 16028A   23355.48209390 -.00000155  00000+0  00000+0 0  9997
2 41471   0.0192  13.2379 0001077 275.2043 128.8904  1.00269785 27979
YAOGAN-30               
1 41473U 16029A   23355.42562279  .00001199  00000+0  17969-3 0  9996
2 41473  98.0352  41.7085 0016584 271.4019  88.5291 14.76402370409573
GSAT0211 (GALILEO 14)   
1 41549U 16030A   23354.58983760  .00000006  00000+0  00000+0 0  9990
2 41549  55.4524 246.7222 0004533  24.4861 335.6028  1.70472937 47148
GSAT0210 (GALILEO 13)   
1 41550U 16030B   23354.29450826  .00000006  00000+0  00000+0 0  9992
2 41550  55.4510 246.7316 0002474 325.2208  34.8308  1.70473394 47156
THAICOM 8               
1 41552U 16031A   23355.10894024 -.00000112  00000+0  00000+0 0  9997
2 41552   0.0478  29.6106 0002830 276.8162 260.7309  1.00273046 27668
ZIYUAN 3-2 (ZY 3-2)     
1 41556U 16033A   23355.44287530  .00010886  00000+0  49116-3 0  9991
2 41556  97.4769  67.3645 0004963  94.5917 265.5886 15.21169385419828
COSMOS 2517 (GEO-IK 2)  
1 41579U 16034A   23355.44213579  .00000047  00000+0  78713-4 0  9993
2 41579  99.2079   4.7408 0000813 104.0683 256.0563 13.85899675381753
INTELSAT 31 (IS-31)     
1 41581U 16035A   23354.90743778 -.00000141  00000+0  00000+0 0  9991
2 41581   0.0189  47.9642 0001946 138.7552 134.1244  1.00269986 27573
BEIDOU-2 G7             
1 41586U 16037A   23355.47347866 -.00000344  00000+0  00000+0 0  9994
2 41586   1.4817  66.5180 0009000 315.4158 348.8587  1.00273453 27679
ABS-2A (MONGOLSAT-1)    
1 41588U 16038A   23355.46634279 -.00000073  00000+0  00000+0 0  9992
2 41588   0.0100 341.0426 0001765 238.2884 113.0602  1.00269100 27576
EUTELSAT 117 WEST B     
1 41589U 16038B   23355.42132821 -.00000001  00000+0  00000+0 0  9996
2 41589   0.0413 174.5038 0000236 183.6248 126.2966  1.00272182 27596
BRISAT                  
1 41591U 16039A   23355.52650689 -.00000187  00000+0  00000+0 0  9993
2 41591   0.0210 347.7967 0002128 278.1513 163.9166  1.00268715 27537
ECHOSTAR 18             
1 41592U 16039B   23354.98174324 -.00000272  00000+0  00000+0 0  9995
2 41592   0.0182  14.8420 0001602 253.2774 113.2506  1.00269728 27509
CARTOSAT-2C             
1 41599U 16040A   23355.46750398  .00007398  00000+0  35294-3 0  9991
2 41599  97.4134  52.5731 0013632  58.3096 301.9466 15.19284758415747
SKYSAT-C1               
1 41601U 16040C   23355.16896525  .00013546  00000+0  47009-3 0  9994
2 41601  97.0910  59.0702 0004725 177.3951 182.7316 15.29885491418771
GHGSAT-D                
1 41602U 16040D   23355.07712829  .00038645  00000+0  79387-3 0  9990
2 41602  97.1313  29.9939 0004387 335.1648  24.9390 15.45893009417218
LAPAN-A3                
1 41603U 16040E   23355.43740336  .00003832  00000+0  16208-3 0  9998
2 41603  97.1538  12.3520 0013022  22.8725 337.3090 15.23700675415995
BIROS                   
1 41604U 16040F   23355.08226583  .00014100  00000+0  44068-3 0  9998
2 41604  97.1446  24.1440 0008908 342.0361  18.0566 15.33227340416699
M3MSAT                  
1 41605U 16040G   23355.03866254  .00011219  00000+0  36094-3 0  9997
2 41605  97.1446  21.5550 0009656   0.5565 359.5687 15.32348689416524
MUOS-5                  
1 41622U 16041A   23355.41577361 -.00000119  00000+0  00000+0 0  9999
2 41622   4.3058 297.4949 0196675 250.4850 306.4222  1.00272015 27959
SJ 16-02                
1 41634U 16043A   23355.50776818  .00001343  00000+0  14789-3 0  9994
2 41634  74.9998 192.7634 0007355  89.9130 270.2899 14.88385235405719
TIANTONG-1 1            
1 41725U 16048A   23355.04184568 -.00000309  00000+0  00000+0 0  9993
2 41725   2.4411  23.1952 0007767 296.7542 245.8428  1.00267077 27144
GAOFEN-3                
1 41727U 16049A   23355.50978872  .00000149  00000+0  58422-4 0  9993
2 41727  98.4066   0.8014 0001904  86.2411 273.8996 14.42187627387661
JCSAT-16                
1 41729U 16050A   23355.52380174 -.00000241  00000+0  00000+0 0  9999
2 41729   0.0347  78.6596 0000888   7.6033 336.0562  1.00270243 26959
QSS (MOZI)              
1 41731U 16051A   23355.45862437  .00009583  00000+0  29371-3 0  9995
2 41731  97.3166 263.6284 0011852 137.4180 222.7984 15.33925229409268
USA 271                 
1 41745U 16052B   23350.22650191  .00000132  00000+0  00000+0 0  9998
2 41745   1.8147  88.8427 0003355 189.2382 269.2017  1.00188104  9571
INTELSAT 36 (IS-36)     
1 41747U 16053A   23355.46503747 -.00000014  00000+0  00000+0 0  9996
2 41747   0.0112   7.0904 0001779   9.8431 308.7374  1.00270168 26834
