OBJECT_NAME,OBJECT_ID,EPOCH,MEAN_MOTION,ECCENTRICITY,INCLINATION,RA_OF_ASC_NODE,ARG_OF_PERICENTER,MEAN_ANOMALY,EPHEMERIS_TYPE,CLASSIFICATION_TYPE,NORAD_CAT_ID,ELEMENT_SET_NO,REV_AT_EPOCH,BSTAR,MEAN_MOTION_DOT,MEAN_MOTION_DDOT
BEIDOU-2 IGSO-6,2016-021A,2023-12-21T02:54:42.511104,1.00261435,0.0049788,58.9076,47.1658,223.5187,317.3028,0,U,41434,999,2835,0,-1.74E-06,0
E-ST@R-II,2016-025D,2023-12-21T11:14:37.963680,15.47955595,0.0073429,98.1571,217.7642,158.3421,202.096,0,U,41459,999,42167,1.32E-03,7.74E-04,0
AIST-2D (RS-48),2016-026B,2023-12-21T10:39:37.077696,15.74075879,0.0002513,96.9636,224.8144,230.5594,129.5449,0,U,41465,999,42924,5.44E-04,7.79E-04,0
IRNSS-1G,2016-027A,2023-12-20T21:42:05.885856,1.0027744,0.0002768,3.0485,126.374,261.6505,156.1676,0,U,41469,999,2806,0,-3.24E-06,0
JCSAT-2B,2016-028A,2023-12-21T11:34:12.912960,1.00269785,0.0001077,0.0192,13.2379,275.2043,128.8904,0,U,41471,999,2797,0,-1.55E-06,0
YAOGAN-30,2016-029A,2023-12-21T10:12:53.809056,14.7640237,0.0016584,98.0352,41.7085,271.4019,88.5291,0,U,41473,999,40957,1.80E-04,1.20E-05,0
GSAT0211 (GALILEO 14),2016-030A,2023-12-20T14:09:21.968640,1.70472937,0.0004533,55.4524,246.7222,24.4861,335.6028,0,U,41549,999,4714,0,6.00E-08,0
GSAT0210 (GALILEO 13),2016-030B,2023-12-20T07:04:05.513664,1.70473394,0.0002474,55.451,246.7316,325.2208,34.8308,0,U,41550,999,4715,0,6.00E-08,0
THAICOM 8,2016-031A,2023-12-21T02:36:52.436736,1.00273046,0.000283,0.0478,29.6106,276.8162,260.7309,0,U,41552,999,2766,0,-1.12E-06,0
ZIYUAN 3-2 (ZY 3-2),2016-033A,2023-12-21T10:37:44.425920,15.21169385,0.0004963,97.4769,67.3645,94.5917,265.5886,0,U,41556,999,41982,4.91E-04,1.09E-04,0
COSMOS 2517 (GEO-IK 2),2016-034A,2023-12-21T10:36:40.532256,13.85899675,0.0000813,99.2079,4.7408,104.0683,256.0563,0,U,41579,999,38175,7.87E-05,4.70E-07,0
INTELSAT 31 (IS-31),2016-035A,2023-12-20T21:46:42.624192,1.00269986,0.0001946,0.0189,47.9642,138.7552,134.1244,0,U,41581,999,2757,0,-1.41E-06,0
BEIDOU-2 G7,2016-037A,2023-12-21T11:21:48.556224,1.00273453,0.0009,1.4817,66.518,315.4158,348.8587,0,U,41586,999,2767,0,-3.44E-06,0
ABS-2A (MONGOLSAT-1),2016-038A,2023-12-21T11:11:32.017056,1.002691,0.0001765,0.01,341.0426,238.2884,113.0602,0,U,41588,999,2757,0,-7.30E-07,0
EUTELSAT 117 WEST B,2016-038B,2023-12-21T10:06:42.757344,1.00272182,0.0000236,0.0413,174.5038,183.6248,126.2966,0,U,41589,999,2759,0,-1.00E-08,0
BRISAT,2016-039A,2023-12-21T12:38:10.195296,1.00268715,0.0002128,0.021,347.7967,278.1513,163.9166,0,U,41591,999,2753,0,-1.87E-06,0
ECHOSTAR 18,2016-039B,2023-12-20T23:33:42.615936,1.00269728,0.0001602,0.0182,14.842,253.2774,113.2506,0,U,41592,999,2750,0,-2.72E-06,0
CARTOSAT-2C,2016-040A,2023-12-21T11:13:12.343872,15.19284758,0.0013632,97.4134,52.5731,58.3096,301.9466,0,U,41599,999,41574,3.53E-04,7.40E-05,0
SKYSAT-C1,2016-040C,2023-12-21T04:03:18.597600,15.29885491,0.0004725,97.091,59.0702,177.3951,182.7316,0,U,41601,999,41877,4.70E-04,1.35E-04,0
GHGSAT-D,2016-040D,2023-12-21T01:51:03.884256,15.45893009,0.0004387,97.1313,29.9939,335.1648,24.939,0,U,41602,999,41721,7.94E-04,3.86E-04,0
LAPAN-A3,2016-040E,2023-12-21T10:29:51.650304,15.23700675,0.0013022,97.1538,12.352,22.8725,337.309,0,U,41603,999,41599,1.62E-04,3.83E-05,0
BIROS,2016-040F,2023-12-21T01:58:27.767712,15.3322734,0.0008908,97.1446,24.144,342.0361,18.0566,0,U,41604,999,41669,4.41E-04,1.41E-04,0
M3MSAT,2016-040G,2023-12-21T00:55:40.443456,15.32348689,0.0009656,97.1446,21.555,0.5565,359.5687,0,U,41605,999,41652,3.61E-04,1.12E-04,0
MUOS-5,2016-041A,2023-12-21T09:58:42.839904,1.00272015,0.0196675,4.3058,297.4949,250.485,306.4222,0,U,41622,999,2795,0,-1.19E-06,0
SJ 16-02,2016-043A,2023-12-21T12:11:11.170752,14.88385235,0.0007355,74.9998,192.7634,89.913,270.2899,0,U,41634,999,40571,1.48E-04,1.34E-05,0
TIANTONG-1 1,2016-048A,2023-12-21T01:00:15.466752,1.00267077,0.0007767,2.4411,23.1952,296.7542,245.8428,0,U,41725,999,2714,0,-3.09E-06,0
GAOFEN-3,2016-049A,2023-12-21T12:14:05.745408,14.42187627,0.0001904,98.4066,0.8014,86.2411,273.8996,0,U,41727,999,38766,5.84E-05,1.49E-06,0
JCSAT-16,2016-050A,2023-12-21T12:34:16.470336,1.00270243,0.0000888,0.0347,78.6596,7.6033,336.0562,0,U,41729,999,2695,0,-2.41E-06,0
QSS (MOZI),2016-051A,2023-12-21T11:00:25.145568,15.33925229,0.0011852,97.3166,263.6284,137.418,222.7984,0,U,41731,999,40926,2.94E-04,9.58E-05,0
USA 271,2016-052B,2023-12-16T05:26:09.765024,1.00188104,0.0003355,1.8147,88.8427,189.2382,269.2017,0,U,41745,999,957,0,1.32E-06,0
INTELSAT 36 (IS-36),2016-053A,2023-12-21T11:09:39.237408,1.00270168,0.0001779,0.0112,7.0904,9.8431,308.7374,0,U,41747,999,2683,0,-1.40E-07,0
